#dV2023  5  4 22  0  0.00000000    1682       CTS   FIT  GFZ
## 2260 424800.00000000    30.00000000 60068 0.9166666666667
+    1   L13  0  0  0  0  0  0  0  0  0  0  0  0  0  0  0  0
+          0  0  0  0  0  0  0  0  0  0  0  0  0  0  0  0  0
+          0  0  0  0  0  0  0  0  0  0  0  0  0  0  0  0  0
+          0  0  0  0  0  0  0  0  0  0  0  0  0  0  0  0  0
+          0  0  0  0  0  0  0  0  0  0  0  0  0  0  0  0  0
++         0  0  0  0  0  0  0  0  0  0  0  0  0  0  0  0  0
++         0  0  0  0  0  0  0  0  0  0  0  0  0  0  0  0  0
++         0  0  0  0  0  0  0  0  0  0  0  0  0  0  0  0  0
++         0  0  0  0  0  0  0  0  0  0  0  0  0  0  0  0  0
++         0  0  0  0  0  0  0  0  0  0  0  0  0  0  0  0  0
%c L  cc GPS ccc cccc cccc cccc cccc ccccc ccccc ccccc ccccc
%c cc cc ccc ccc cccc cccc cccc cccc ccccc ccccc ccccc ccccc
%f  0.0000000  0.000000000  0.00000000000  0.000000000000000
%f  0.0000000  0.000000000  0.00000000000  0.000000000000000
%i    0    0    0    0      0      0      0      0         0
%i    0    0    0    0      0      0      0      0         0
/* CCCCCCCCCCCCCCCCCCCCCCCCCCCCCCCCCCCCCCCCCCCCCCCCCCCCCCCCCCCCCCCCCCCCCCCCCCCCC
/* C                             GFZ RSO-ORBIT                                 C
/* C DOI: https://doi.org/10.5880/GFZ_ORBIT/RSO/L13_G_v02                      C
/* C                                                                           C
/* C DORIS        RMS: not applicable                                          C
/* C GNSS-E Code  RMS: not applicable                                          C
/* C GNSS-E Phase RMS: not applicable                                          C
/* C GNSS-G Code  RMS:  54.528 [cm]   Obs.acc.:     12072 Obs.eli.:       791  C
/* C GNSS-G Phase RMS:   4.826 [mm]   Obs.acc.:     12072 Obs.eli.:       791  C
/* C SLR          RMS: not applicable                                          C
/* C                                                                           C
/* CCCCCCCCCCCCCCCCCCCCCCCCCCCCCCCCCCCCCCCCCCCCCCCCCCCCCCCCCCCCCCCCCCCCCCCCCCCCC
*  2023  5  5  2 40 30.00000000
PL13   2250.564155   1410.642319  -6362.925952     -0.463092
VL13 -41306.954151 -58334.107699 -27552.368237 999999.999999
*  2023  5  5  2 41  0.00000000
PL13   2125.061837   1235.180114  -6442.092828     -0.364145
VL13 -42353.890026 -58629.347133 -25220.806506 999999.999999
*  2023  5  5  2 41 30.00000000
PL13   1996.485720   1058.934366  -6514.223599     -0.292430
VL13 -43355.922307 -58856.459460 -22862.053888 999999.999999
*  2023  5  5  2 42  0.00000000
PL13   1864.972571    882.109510  -6579.240510     -0.029153
VL13 -44311.688074 -59015.421382 -20478.660714 999999.999999
*  2023  5  5  2 42 30.00000000
PL13   1730.663175    704.909938  -6637.073498      0.477413
VL13 -45219.872299 -59106.285719 -18073.202958 999999.999999
*  2023  5  5  2 43  0.00000000
PL13   1593.702184    527.539766  -6687.660263      0.779943
VL13 -46079.211390 -59129.182664 -15648.281339 999999.999999
*  2023  5  5  2 43 30.00000000
PL13   1454.237962    350.202603  -6730.946341      0.390159
VL13 -46888.496671 -59084.320882 -13206.515741 999999.999999
*  2023  5  5  2 44  0.00000000
PL13   1312.422413    173.101316  -6766.885147      0.290837
VL13 -47646.574350 -58971.985954 -10750.539973 999999.999999
*  2023  5  5  2 44 30.00000000
PL13   1168.410824     -3.562198  -6795.438016      0.219850
VL13 -48352.345383 -58792.539107  -8282.999724 999999.999999
*  2023  5  5  2 45  0.00000000
PL13   1022.361693   -179.587240  -6816.574236      0.155424
VL13 -49004.766995 -58546.416027  -5806.550429 999999.999999
*  2023  5  5  2 45 30.00000000
PL13    874.436559   -354.774524  -6830.271073      0.110957
VL13 -49602.853945 -58234.125111  -3323.855080 999999.999999
*  2023  5  5  2 46  0.00000000
PL13    724.799833   -528.926401  -6836.513790      0.119414
VL13 -50145.679021 -57856.246894   -837.582690 999999.999999
*  2023  5  5  2 46 30.00000000
PL13    573.618616   -701.847069  -6835.295665      0.478459
VL13 -50632.374725 -57413.434111   1649.593827 999999.999999
*  2023  5  5  2 47  0.00000000
PL13    421.062522   -873.342792  -6826.617995      0.675315
VL13 -51062.135270 -56906.410603   4135.001534 999999.999999
*  2023  5  5  2 47 30.00000000
PL13    267.303486  -1043.222112  -6810.490094      0.378997
VL13 -51434.216646 -56335.969137   6615.970620 999999.999999
*  2023  5  5  2 48  0.00000000
PL13    112.515585  -1211.296047  -6786.929277      0.236640
VL13 -51747.936666 -55702.969771   9089.834940 999999.999999
*  2023  5  5  2 48 30.00000000
PL13    -43.125152  -1377.378298  -6755.960852      0.174324
VL13 -52002.677185 -55008.339914  11553.932194 999999.999999
*  2023  5  5  2 49  0.00000000
PL13   -199.440945  -1541.285449  -6717.618106      0.134520
VL13 -52197.887169 -54253.074780  14005.607442 999999.999999
*  2023  5  5  2 49 30.00000000
PL13   -356.252459  -1702.837171  -6671.942272      0.104035
VL13 -52333.083194 -53438.235849  16442.218243 999999.999999
*  2023  5  5  2 50  0.00000000
PL13   -513.379012  -1861.856414  -6618.982489      0.039822
VL13 -52407.848699 -52564.948939  18861.136971 999999.999999
*  2023  5  5  2 50 30.00000000
PL13   -670.638770  -2018.169604  -6558.795754      0.027180
VL13 -52421.835140 -51634.403662  21259.752498 999999.999999
*  2023  5  5  2 51  0.00000000
PL13   -827.848962  -2171.606828  -6491.446869      0.010373
VL13 -52374.763428 -50647.852324  23635.473937 999999.999999
*  2023  5  5  2 51 30.00000000
PL13   -984.826080  -2322.002022  -6417.008372      0.052093
VL13 -52266.423801 -49606.607043  25985.734339 999999.999999
*  2023  5  5  2 52  0.00000000
PL13  -1141.386094  -2469.193144  -6335.560467      0.307077
VL13 -52096.675443 -48512.037009  28307.991768 999999.999999
*  2023  5  5  2 52 30.00000000
PL13  -1297.344651  -2613.022343  -6247.190942      0.213632
VL13 -51865.447624 -47365.567926  30599.730191 999999.999999
*  2023  5  5  2 53  0.00000000
PL13  -1452.517298  -2753.336132  -6151.995093      0.202777
VL13 -51572.740941 -46168.681382  32858.462621 999999.999999
*  2023  5  5  2 53 30.00000000
PL13  -1606.719688  -2889.985548  -6050.075628      0.083386
VL13 -51218.627569 -44922.912879  35081.734181 999999.999999
*  2023  5  5  2 54  0.00000000
PL13  -1759.767798  -3022.826313  -5941.542570      0.028719
VL13 -50803.251318 -43629.849901  37267.124291 999999.999999
*  2023  5  5  2 54 30.00000000
PL13  -1911.478146  -3151.718989  -5826.513149      0.011231
VL13 -50326.827943 -42291.130448  39412.248597 999999.999999
*  2023  5  5  2 55  0.00000000
PL13  -2061.668005  -3276.529125  -5705.111692      0.003300
VL13 -49789.645842 -40908.441764  41514.761240 999999.999999
*  2023  5  5  2 55 30.00000000
PL13  -2210.155622  -3397.127404  -5577.469500     -0.026724
VL13 -49192.066988 -39483.518913  43572.357573 999999.999999
*  2023  5  5  2 56  0.00000000
PL13  -2356.760444  -3513.389784  -5443.724724     -0.108291
VL13 -48534.527573 -38018.143150  45582.777640 999999.999999
*  2023  5  5  2 56 30.00000000
PL13  -2501.303335  -3625.197633  -5304.022224     -0.058356
VL13 -47817.537652 -36514.139325  47543.809860 999999.999999
*  2023  5  5  2 57  0.00000000
PL13  -2643.606800  -3732.437856  -5158.513415     -0.083157
VL13 -47041.680281 -34973.373016  49453.293423 999999.999999
*  2023  5  5  2 57 30.00000000
PL13  -2783.495202  -3835.003012  -5007.356122     -0.080693
VL13 -46207.611079 -33397.748435  51309.120164 999999.999999
*  2023  5  5  2 58  0.00000000
PL13  -2920.794980  -3932.791428  -4850.714406     -0.068169
VL13 -45316.057940 -31789.206492  53109.236917 999999.999999
*  2023  5  5  2 58 30.00000000
PL13  -3055.334863  -4025.707308  -4688.758408     -0.066066
VL13 -44367.820617 -30149.722534  54851.647942 999999.999999
*  2023  5  5  2 59  0.00000000
PL13  -3186.946088  -4113.660828  -4521.664163     -0.062720
VL13 -43363.770172 -28481.304037  56534.417117 999999.999999
*  2023  5  5  2 59 30.00000000
PL13  -3315.462610  -4196.568234  -4349.613424     -0.058655
VL13 -42304.848462 -26785.988388  58155.670024 999999.999999
*  2023  5  5  3  0  0.00000000
PL13  -3440.721317  -4274.351925  -4172.793471     -0.061000
VL13 -41192.067609 -25065.840679  59713.596142 999999.999999
*  2023  5  5  3  0 30.00000000
PL13  -3562.562237  -4346.940536  -3991.396920     -0.041215
VL13 -40026.509423 -23322.951407  61206.451025 999999.999999
*  2023  5  5  3  1  0.00000000
PL13  -3680.828745  -4414.269005  -3805.621515     -0.007741
VL13 -38809.324915 -21559.434269  62632.558593 999999.999999
*  2023  5  5  3  1 30.00000000
PL13  -3795.367777  -4476.278647  -3615.669923     -0.026328
VL13 -37541.733557 -19777.423703  63990.313928 999999.999999
*  2023  5  5  3  2  0.00000000
PL13  -3906.030024  -4532.917206  -3421.749517     -0.029214
VL13 -36225.021804 -17979.071844  65278.185928 999999.999999
*  2023  5  5  3  2 30.00000000
PL13  -4012.670137  -4584.138904  -3224.072149     -0.071100
VL13 -34860.541335 -16166.545471  66494.719061 999999.999999
*  2023  5  5  3  3  0.00000000
PL13  -4115.146917  -4629.904483  -3022.853923     -0.135488
VL13 -33449.707769 -14342.023380  67638.534610 999999.999999
*  2023  5  5  3  3 30.00000000
PL13  -4213.323507  -4670.181236  -2818.314962     -0.103703
VL13 -31993.999719 -12507.694055  68708.332208 999999.999999
*  2023  5  5  3  4  0.00000000
PL13  -4307.067579  -4704.943035  -2610.679171     -0.095444
VL13 -30494.957612 -10665.753341  69702.891834 999999.999999
*  2023  5  5  3  4 30.00000000
PL13  -4396.251517  -4734.170346  -2400.173989     -0.055007
VL13 -28954.182011  -8818.401880  70621.076014 999999.999999
*  2023  5  5  3  5  0.00000000
PL13  -4480.752595  -4757.850238  -2187.030146     -0.033063
VL13 -27373.331593  -6967.842107  71461.831695 999999.999999
*  2023  5  5  3  5 30.00000000
PL13  -4560.453145  -4775.976391  -1971.481398      0.033708
VL13 -25754.121232  -5116.275176  72224.191557 999999.999999
EOF
